School_Name,Suburb,VCE_Students,VCE_Completion%,VCE_Median,VCE_Over40%,Postcode,City
Academy of Mary Immaculate,FITZROY,149,96,31,12.4,3065,MELBOURNE CITY
Adass Israel School,ELSTERNWICK,102,0,0,0,3185,MOORABBIN
Advance Community College,ROSEBUD WEST,16,0,0,0,3940,FRANKSTON
Aitken College,GREENVALE,165,100,29,6.1,3059,MELB NORTH WEST
Al Siraat College,EPPING,34,100,25,2.2,3076,RINGWOOD
Al-Taqwa College Islamic Schools of Vic,TRUGANINA,177,100,27,3,3029,MELB NORTH WEST
Albert Park College,ALBERT PARK,248,99,32,12.5,3206,MOORABBIN
Albury Wodonga Community College,WODONGA,29,0,0,0,3689,VIC FAR COUNTRY
Albury Wodonga Community College,WODONGA,29,0,0,0,3690,VIC FAR COUNTRY
Alexandra Secondary College,ALEXANDRA,48,100,24,2.4,3714,VIC FAR COUNTRY
Alia College,HAWTHORN EAST,31,100,24,0,3123,HAWTHORN
Alice Miller School Macedon,MACEDON,22,100,29,4.3,3440,MELB NORTH WEST
Alkira Secondary College,CRANBOURNE NORTH,215,92,27,2.7,3977,FRANKSTON
Alphington Grammar School,ALPHINGTON,94,99,32,13.1,3078,PRESTON
Antonine College,PASCOE VALE SOUTH,69,98,26,3.5,3044,FOOTSCRAY
Apollo Bay P-12 College,APOLLO BAY,28,100,32,15.7,3233,VIC FAR COUNTRY
Aquinas College,RINGWOOD,354,100,30,6.5,3134,RINGWOOD
Ararat College,ARARAT,52,100,26,0.7,3377,VIC FAR COUNTRY
Ashwood High School,ASHWOOD,68,98,29,5,3147,HAWTHORN
Assumption College,KILMORE,340,100,28,2.2,3764,PRESTON
Auburn High School,HAWTHORN EAST,76,93,27,2.4,3123,HAWTHORN
Australian International Academy,COBURG,27,100,30,5.3,3058,PRESTON
Ave Maria College,ABERFELDIE,265,99,31,8.4,3040,FOOTSCRAY
Avila College,MOUNT WAVERLEY,261,99,32,8.8,3149,MULGRAVE
Bacchus Marsh College,BACCHUS MARSH,148,94,24,0,3340,MELB NORTH WEST
Bacchus Marsh Grammar,BACCHUS MARSH,217,100,31,10,3340,MELB NORTH WEST
Baimbridge College,HAMILTON,86,89,26,0.6,3300,VIC FAR COUNTRY
Bairnsdale Secondary College,BAIRNSDALE,200,96,24,0.8,3875,VIC FAR COUNTRY
Balcombe Grammar School,MOUNT MARTHA,114,100,31,5.5,3934,FRANKSTON
Ballarat and Clarendon College,BALLARAT,204,100,37,33.6,3350,VIC COUNTRY
Ballarat and Clarendon College,BALLARAT,204,100,37,33.6,3353,VIC COUNTRY
Ballarat Christian College,SEBASTOPOL,56,100,29,4.9,3356,VIC COUNTRY
Ballarat Grammar School,WENDOUREE,306,100,32,11.2,3355,VIC COUNTRY
Ballarat High School,BALLARAT,318,97,28,3.9,3350,VIC COUNTRY
Ballarat High School,BALLARAT,318,97,28,3.9,3353,VIC COUNTRY
Ballarat Secondary College,BALLARAT EAST,55,94,28,0,3350,VIC COUNTRY
Ballarat Secondary College,WENDOUREE,51,97,23,0,3355,VIC COUNTRY
Balmoral Community College,BALMORAL,10,88,27,0,3407,VIC FAR COUNTRY
Balwyn High School,BALWYN NORTH,618,99,34,21.2,3104,HAWTHORN
Bayside Christian College,LANGWARRIN SOUTH,72,100,30,3.1,3911,FRANKSTON
Bayside College,NEWPORT,141,91,28,2.7,3015,FOOTSCRAY
Bayswater Secondary College,BAYSWATER,35,100,22,0,3153,FERNTREE GULLY
Bayview College,PORTLAND,55,100,29,3.7,3305,VIC FAR COUNTRY
Beaconhills College,BERWICK,228,99,31,7.4,3806,DANDENONG
Beaconhills College,PAKENHAM,173,100,31,5.8,3810,FRANKSTON
Beaufort Secondary College,BEAUFORT,35,83,27,3.9,3373,VIC FAR COUNTRY
Beechworth Secondary College,BEECHWORTH,49,91,28,0.9,3747,VIC FAR COUNTRY
Belgrave Heights Christian School,BELGRAVE HEIGHTS,110,100,30,7.2,3160,FERNTREE GULLY
Bellarine Secondary College,DRYSDALE,203,94,27,2.2,3222,VIC FAR COUNTRY
Belmont High School,BELMONT,329,98,28,6,3216,VIC COUNTRY
Benalla P-12 College,BENALLA,87,97,23,0,3671,VIC FAR COUNTRY
Benalla P-12 College,BENALLA,87,97,23,0,3672,VIC FAR COUNTRY
Bendigo Senior Secondary College,BENDIGO,1175,95,27,1.8,3550,VIC COUNTRY
Bendigo Senior Secondary College,BENDIGO,1175,95,27,1.8,3552,VIC COUNTRY
Bendigo TAFE,BENDIGO,18,0,0,0,3550,VIC COUNTRY
Bendigo TAFE,BENDIGO,18,0,0,0,3552,VIC COUNTRY
Bentleigh Secondary College,EAST BENTLEIGH,246,100,29,3.6,,
Berry Street Victoria,RICHMOND,0,0,0,0,3121,MOORABBIN
Berwick Grammar School,OFFICER,61,97,31,9.1,3809,DANDENONG
Berwick Secondary College,BERWICK,341,98,29,5.6,3806,DANDENONG
Beth Rivkah Ladies College,ST KILDA EAST,77,100,35,15.1,3183,MOORABBIN
Bialik College,HAWTHORN EAST,156,100,37,35.5,3123,HAWTHORN
Billanook College,MOOROOLBARK,188,100,31,8.8,3138,RINGWOOD
Birchip P-12 School,BIRCHIP,31,100,29,4.2,3483,VIC FAR COUNTRY
Blackburn High School,BLACKBURN,283,97,30,6.8,3130,FERNTREE GULLY
Boort District P-12 School,BOORT,23,100,30,5.1,3537,VIC FAR COUNTRY
Boronia K-12 College,BORONIA,56,100,23,2.6,3155,FERNTREE GULLY
Box Hill High School,BOX HILL,391,98,33,15,3128,FERNTREE GULLY
Box Hill Institute,BOX HILL,133,0,0,0,3128,FERNTREE GULLY
Box Hill Senior Secondary College,MONT ALBERT NORTH,229,100,25,1.5,3129,FERNTREE GULLY
Braemar College,WOODEND,158,100,33,11.5,3442,MELB NORTH WEST
Brauer College,WARRNAMBOOL,157,96,28,6,3280,VIC FAR COUNTRY
Braybrook College,BRAYBROOK,283,99,30,6.4,3019,FOOTSCRAY
Brentwood Secondary College,GLEN WAVERLEY,412,100,31,5.9,3150,MULGRAVE
Bright P-12 College,BRIGHT,50,100,27,2.7,3741,VIC FAR COUNTRY
Brighton Grammar School,BRIGHTON,218,100,34,20.8,3186,MOORABBIN
Brighton Secondary College,BRIGHTON EAST,336,96,30,6.2,3187,MOORABBIN
Broadford Secondary College,BROADFORD,123,94,25,2,3658,VIC FAR COUNTRY
Brunswick Secondary College,BRUNSWICK,192,99,30,6.8,3056,PRESTON
Buckley Park College,ESSENDON,237,98,31,8.9,3040,FOOTSCRAY
Bundoora Secondary College,BUNDOORA,73,92,22,1.1,3083,PRESTON
Camberwell Anglican Girls Grammar School,CANTERBURY,164,100,36,27.4,3126,HAWTHORN
Camberwell Grammar School,CANTERBURY,297,100,35,24.5,3126,HAWTHORN
Camberwell High School,CANTERBURY,341,96,32,9.9,3126,HAWTHORN
Camperdown College,CAMPERDOWN,21,100,30,1.5,3260,VIC FAR COUNTRY
Cann River P-12 College,CANN RIVER,5,75,23,0,3890,VIC FAR COUNTRY
Canterbury Girls Secondary College,CANTERBURY,257,100,32,13.1,3126,HAWTHORN
Carey Baptist Grammar School,KEW,225,100,33,10.5,3101,HAWTHORN
Caroline Chisholm Catholic College,BRAYBROOK,329,99,30,5.1,3019,FOOTSCRAY
Carrum Downs Secondary College,CARRUM DOWNS,176,95,25,1.4,3201,FRANKSTON
Carwatha College P-12,NOBLE PARK NORTH,126,100,25,1,3174,MULGRAVE
Casey Grammar School,CRANBOURNE,93,100,27,2.6,3977,FRANKSTON
Casterton Secondary College,CASTERTON,25,100,34,11.1,3311,VIC FAR COUNTRY
Castlemaine Secondary College,CASTLEMAINE,162,100,26,2.1,3450,VIC FAR COUNTRY
Cathedral College,WANGARATTA,53,97,29,5.6,3676,VIC FAR COUNTRY
Cathedral College,WANGARATTA,53,97,29,5.6,3677,VIC FAR COUNTRY
Catholic College,BENDIGO,454,100,29,4.3,3550,VIC COUNTRY
Catholic College,BENDIGO,454,100,29,4.3,3552,VIC COUNTRY
Catholic College,SALE,239,100,30,8.6,3850,VIC FAR COUNTRY
Catholic College,SALE,239,100,30,8.6,3853,VIC FAR COUNTRY
Catholic College,WODONGA,257,98,29,3.7,3689,VIC FAR COUNTRY
Catholic College,WODONGA,257,98,29,3.7,3690,VIC FAR COUNTRY
Catholic Ladies College,ELTHAM,206,100,31,5.5,3095,PRESTON
Catholic Regional College,CAROLINE SPRINGS,0,0,0,0,3023,FOOTSCRAY
Catholic Regional College,MELTON WEST,215,99,28,1.8,3337,MELB NORTH WEST
Catholic Regional College,SYDENHAM,637,100,30,4,3037,HAWTHORN
Caulfield Grammar School,ST KILDA EAST,405,100,35,25.7,3183,MOORABBIN
Caulfield Grammar School,WHEELERS HILL,267,100,34,25.2,3150,MULGRAVE
Centre for Adult Education,MELBOURNE,238,81,25,1.9,3000,MELBOURNE CITY
Centre for Adult Education,MELBOURNE,238,81,25,1.9,3001,MELBOURNE CITY
Centre for Adult Education,MELBOURNE,238,81,25,1.9,3004,MELBOURNE CITY
Chaffey Secondary College,MILDURA,0,0,0,0,3500,VIC FAR COUNTRY
Chaffey Secondary College,MILDURA,0,0,0,0,3502,VIC FAR COUNTRY
Chairo Christian School,DROUIN,146,100,29,4.8,3818,VIC COUNTRY
Charles La Trobe P-12 College,MACLEOD WEST,42,92,27,0,3085,HAWTHORN
Charles La Trobe P-12 College,PRESTON,32,0,0,0,3072,PRESTON
Charlton College,CHARLTON,22,100,32,8.1,3525,VIC FAR COUNTRY
Cheltenham Secondary College,CHELTENHAM,226,99,29,6.2,3192,DANDENONG
Chisholm Institute of TAFE,DANDENONG,192,78,21,0.8,3175,DANDENONG
Chisholm Institute of TAFE,FRANKSTON,100,82,25,0,3199,FRANKSTON
Christian Brothers College,ST KILDA EAST,87,98,30,5.1,3183,MOORABBIN
Christian College Institute,WAURN PONDS,264,100,31,9,3216,VIC COUNTRY
Cire Community School,YARRA JUNCTION,9,0,0,0,3797,RINGWOOD
Clonard College,GEELONG WEST,191,100,30,4.9,3218,VIC COUNTRY
Cobden Technical School,COBDEN,68,89,22,0,3266,VIC FAR COUNTRY
Cobram Anglican Grammar School,COBRAM,22,100,26,3.1,3643,VIC FAR COUNTRY
Cobram Anglican Grammar School,COBRAM,22,100,26,3.1,3644,VIC FAR COUNTRY
Cobram Secondary College,COBRAM,87,98,27,2.4,3643,VIC FAR COUNTRY
Cobram Secondary College,COBRAM,87,98,27,2.4,3644,VIC FAR COUNTRY
Coburg Senior High School,COBURG,10,100,30,8,3058,PRESTON
Cohuna Secondary College,COHUNA,65,97,27,4.3,3568,VIC FAR COUNTRY
Colac Secondary College Hearn,COLAC,79,98,23,0,3250,VIC FAR COUNTRY
Collingwood College,COLLINGWOOD,73,96,26,3.2,3066,MELBOURNE CITY
Copperfield College,DELAHEY,363,97,29,2.1,3037,HAWTHORN
Cornish College,BANGHOLME,78,100,29,4.7,3175,DANDENONG
Corryong College,CORRYONG,38,100,29,2.2,3707,VIC FAR COUNTRY
Covenant College,BELL POST HILL,76,100,31,7.5,3215,VIC COUNTRY
Craigieburn Secondary College,CRAIGIEBURN,179,94,26,1.9,3064,MELB NORTH WEST
Cranbourne East Secondary College,CRANBOURNE EAST,194,93,28,2.9,3977,FRANKSTON
Cranbourne Secondary College,CRANBOURNE,171,99,28,3.4,3977,FRANKSTON
Croydon Community School,CROYDON,7,0,0,0,3136,RINGWOOD
Damascus College,MOUNT CLEAR,184,100,28,5.7,3350,VIC COUNTRY
Dandenong High School,DANDENONG,437,94,24,0.5,3175,DANDENONG
Darul Ulum College of Victoria,FAWKNER,93,94,27,1.3,3060,PRESTON
Daylesford Secondary College,DAYLESFORD,75,98,26,0.5,3460,VIC FAR COUNTRY
De La Salle College,MALVERN,217,100,30,6.4,3144,HAWTHORN
Derrinallum P-12 College,DERRINALLUM,5,100,30,0,3325,VIC FAR COUNTRY
Diamond Valley College,DIAMOND CREEK,173,95,27,1.6,3089,MELB NORTH WEST
Diamond Valley Learning Centre,GREENSBOROUGH,0,0,0,0,3088,PRESTON
Dimboola Memorial Secondary College,DIMBOOLA,21,100,34,13.1,3414,VIC FAR COUNTRY
Distance Education Centre Victoria,THORNBURY,404,89,28,3.9,3071,PRESTON
Diversitat,GEELONG,0,0,0,0,3220,VIC COUNTRY
Djerriwarrh Community & Education Service,MELTON,0,0,0,0,3337,MELB NORTH WEST
Donald High School,DONALD,34,100,28,2.6,3480,VIC FAR COUNTRY
Doncaster Secondary College,DONCASTER,328,98,29,5.1,3108,RINGWOOD
Donvale Christian College,DONVALE,195,100,33,10.7,3111,RINGWOOD
Dromana Secondary College,DROMANA,183,99,32,7.5,3936,FRANKSTON
Drouin Secondary College,DROUIN,181,100,27,2.2,3818,VIC COUNTRY
East Doncaster Secondary College,EAST DONCASTER,370,99,32,11.6,,
East Loddon P-12 College,DINGEE,29,100,30,1.4,3571,VIC FAR COUNTRY
East Preston Islamic College,PRESTON EAST,33,100,24,0,,
Echuca College,ECHUCA,171,98,26,2.1,3564,VIC FAR COUNTRY
Edenhope College,EDENHOPE,22,100,29,0,3318,VIC FAR COUNTRY
Edinburgh College,LILYDALE,30,100,31,6.5,3140,RINGWOOD
Education Centre Gippsland,WARRAGUL,14,0,0,0,3820,VIC COUNTRY
Elisabeth Murdoch College,LANGWARRIN,318,98,27,3.2,3910,FRANKSTON
Eltham College of Education,RESEARCH,160,100,32,14,3095,PRESTON
Eltham High School,ELTHAM,270,98,29,5.2,3095,PRESTON
Elwood College,ELWOOD,121,94,30,7.3,3184,MOORABBIN
Emerald Secondary College,EMERALD,140,96,28,3.1,3782,FERNTREE GULLY
Emmanuel College,NORTH ALTONA,364,100,29,3.7,,
Emmanuel College,WARRNAMBOOL,271,98,27,3.7,3280,VIC FAR COUNTRY
Emmaus College,BURWOOD,289,100,30,6.1,3125,HAWTHORN
Epping Secondary College,EPPING,186,93,28,3.7,3076,RINGWOOD
Essendon Keilor College,ESSENDON,195,97,25,1.7,3040,FOOTSCRAY
Euroa Secondary College,EUROA,98,93,26,3.9,3666,VIC FAR COUNTRY
F.C.J. College,BENALLA,88,98,28,3.4,3671,VIC FAR COUNTRY
F.C.J. College,BENALLA,88,98,28,3.4,3672,VIC FAR COUNTRY
Fairhills High School,KNOXFIELD,174,93,27,2.3,3180,FERNTREE GULLY
Federation Training,NEWBOROUGH,44,42,22,0,3825,VIC COUNTRY
Federation University Australia,BALLARAT,27,0,0,0,3350,VIC COUNTRY
Federation University Australia,BALLARAT,27,0,0,0,3353,VIC COUNTRY
Fintona Girls School,BALWYN,91,100,35,22,3103,HAWTHORN
Firbank Grammar School,BRIGHTON,236,99,35,24.9,3186,MOORABBIN
Fitzroy High School,FITZROY NORTH,113,100,30,4.7,3068,PRESTON
Flinders Christian Community College,CARRUM DOWNS,139,100,32,6.9,3201,FRANKSTON
Flinders Christian Community College,TRARALGON,23,100,30,1.3,3844,VIC COUNTRY
Flinders Christian Community College,TYABB,142,100,29,5,3913,FRANKSTON
Footscray City College,FOOTSCRAY,168,99,29,4.7,3011,FOOTSCRAY
Forest Hill College,BURWOOD EAST,148,99,25,1.9,3151,HAWTHORN
Foster Secondary College,FOSTER,75,100,27,3.5,3960,VIC FAR COUNTRY
Fountain Gate Secondary College,FOUNTAIN GATE,159,99,28,1.5,3805,DANDENONG
Frankston High School,FRANKSTON,498,100,31,9.3,3199,FRANKSTON
Galen College,WANGARATTA,253,100,30,4.2,3676,VIC FAR COUNTRY
Galen College,WANGARATTA,253,100,30,4.2,3677,VIC FAR COUNTRY
Geelong Baptist College,LOVELY BANKS,30,100,26,4,3213,VIC COUNTRY
Geelong Grammar School,CORIO,219,99,31,8.2,3214,VIC COUNTRY
Geelong High School,EAST GEELONG,188,97,25,1.3,3219,VIC COUNTRY
Geelong Lutheran College,ARMSTRONG CREEK,62,100,29,4.8,3217,VIC COUNTRY
Genazzano F.C.J. College,KEW,286,100,35,22,3101,HAWTHORN
Gilmore College for Girls,FOOTSCRAY,49,100,29,7.4,3011,FOOTSCRAY
Gilson College,TAYLORS HILL,106,100,27,3.2,3037,HAWTHORN
Gippsland Grammar,SALE,173,100,32,11.3,3850,VIC FAR COUNTRY
Gippsland Grammar,SALE,173,100,32,11.3,3853,VIC FAR COUNTRY
Girton Grammar School,BENDIGO,241,100,34,16.6,3550,VIC COUNTRY
Girton Grammar School,BENDIGO,241,100,34,16.6,3552,VIC COUNTRY
Gisborne Secondary College,GISBORNE,249,98,26,2,3437,MELB NORTH WEST
Gladstone Park Secondary College,GLADSTONE PARK,318,100,29,4.7,3043,FOOTSCRAY
Glen Eira College,CAULFIELD EAST,136,99,29,5.1,3145,MULGRAVE
Glen Waverley Secondary College,GLEN WAVERLEY,649,100,33,15.9,3150,MULGRAVE
Gleneagles Secondary College,ENDEAVOUR HILLS,240,96,28,2.9,3802,DANDENONG
Glenroy Neighbourhood Centre,GLENROY,0,0,0,0,3046,FOOTSCRAY
Glenroy Secondary College,GLENROY,81,91,22,1.5,3046,FOOTSCRAY
Glenvale School,YARRAMBAT,108,98,32,13,3091,MELB NORTH WEST
Goldfields Employment & Learning Centre,MARYBOROUGH,0,0,0,0,3465,VIC FAR COUNTRY
Good News Lutheran College,TARNEIT,52,100,25,0.6,3029,MELB NORTH WEST
Good Shepherd College,HAMILTON,11,100,30,3.8,3300,VIC FAR COUNTRY
Gordon Institute,GEELONG,149,94,24,0,3220,VIC COUNTRY
Goroke P-12 College,GOROKE,18,100,29,7.4,3412,VIC FAR COUNTRY
Goulburn Ovens Institute of TAFE,SHEPPARTON,34,0,0,0,3630,VIC COUNTRY
Goulburn Ovens Institute of TAFE,SHEPPARTON,34,0,0,0,3632,VIC COUNTRY
Goulburn Valley Grammar School,SHEPPARTON,147,100,34,17.2,3630,VIC COUNTRY
Goulburn Valley Grammar School,SHEPPARTON,147,100,34,17.2,3632,VIC COUNTRY
Greensborough Secondary College,GREENSBOROUGH,148,98,28,3,3088,PRESTON
Grovedale College,GROVEDALE,152,100,27,4.6,3216,VIC COUNTRY
Haileybury College,KEYSBOROUGH,475,100,35,26.1,3173,DANDENONG
Haileybury Girls College,KEYSBOROUGH,333,100,36,29.5,3173,DANDENONG
Hallam Senior Secondary College,HALLAM,348,90,21,0.2,3803,DANDENONG
Hampton Park Secondary College,HAMPTON PARK,205,99,25,0.7,3976,DANDENONG
Hawkesdale College,HAWKESDALE,31,94,25,0,3287,VIC FAR COUNTRY
Healesville High School,HEALESVILLE,77,97,24,1.4,3777,RINGWOOD
Heathdale Christian College,WERRIBEE,95,100,29,6.5,3030,MELB NORTH WEST
Heatherton Christian College,CLARINDA,48,100,31,13.7,3169,MULGRAVE
Heathmont College,HEATHMONT,74,95,28,3.2,3135,RINGWOOD
Heritage College,OFFICER,33,100,26,2.3,3809,DANDENONG
Heywood and District Secondary College,HEYWOOD,35,100,22,1.6,3304,VIC FAR COUNTRY
Highvale Secondary College,GLEN WAVERLEY,250,96,29,4.3,3150,MULGRAVE
Highview Christian Community College,MARYBOROUGH,75,98,27,4.8,3465,VIC FAR COUNTRY
Hillcrest Christian College,CLYDE NORTH,144,99,29,6.4,3978,FRANKSTON
Holmes Secondary College,MELBOURNE,14,92,26,0,3000,MELBOURNE CITY
Holmes Secondary College,MELBOURNE,14,92,26,0,3001,MELBOURNE CITY
Holmes Secondary College,MELBOURNE,14,92,26,0,3004,MELBOURNE CITY
Holmesglen Institute of TAFE,HOLMESGLEN,0,0,0,0,3148,MULGRAVE
Holmesglen Institute of TAFE,MOORABBIN,76,0,0,0,3189,DANDENONG
Hopetoun P-12 College,HOPETOUN,18,100,27,0,3396,VIC FAR COUNTRY
Hoppers Crossing Secondary College,HOPPERS CROSSING,230,99,28,4.9,3029,MELB NORTH WEST
Horsham College,HORSHAM,148,96,29,6.4,3400,VIC FAR COUNTRY
Horsham College,HORSHAM,148,96,29,6.4,3402,VIC FAR COUNTRY
Hume Anglican Grammar,MICKLEHAM,57,100,28,2.3,3064,MELB NORTH WEST
Hume Central Secondary College,BROADMEADOWS,155,100,23,1.9,3047,MELB NORTH WEST
Huntingtower School,MOUNT WAVERLEY,165,100,37,30,3149,MULGRAVE
Ilim College Boys Campus Dallas,DALLAS,67,100,28,3.8,3047,MELB NORTH WEST
Ilim College of Australia,BROADMEADOWS,100,98,29,7.8,3047,MELB NORTH WEST
Ivanhoe Girls Grammar School,IVANHOE,276,100,34,19.6,3079,HAWTHORN
Ivanhoe Grammar School,IVANHOE,309,99,33,13.2,3079,HAWTHORN
Ivanhoe Grammar School,MERNDA,129,100,34,16.3,3754,PRESTON
John Fawkner College,FAWKNER,60,85,25,1.9,3060,PRESTON
John Monash Science School,CLAYTON,410,100,34,16.8,3168,MULGRAVE
John Paul College,FRANKSTON,213,100,28,3.2,3199,FRANKSTON
Kambrya College,BERWICK,235,97,30,3.3,3806,DANDENONG
Kangan Institute of TAFE,BROADMEADOWS,86,81,19,0,3047,MELB NORTH WEST
Kaniva P-12 College,KANIVA,20,100,30,4.8,3419,VIC FAR COUNTRY
Kardinia International College,BELL POST HILL,291,100,31,9.4,3215,VIC COUNTRY
Keilor Downs College,KEILOR DOWNS,245,100,29,5.9,3038,HAWTHORN
Kensington Community High School,KENSINGTON,7,0,0,0,3031,FOOTSCRAY
Kerang Christian College,KERANG,20,100,27,0,3579,VIC FAR COUNTRY
Kerang Technical High School,KERANG,75,91,26,2.6,3579,VIC FAR COUNTRY
Kew High School,KEW EAST,337,99,30,7.9,3102,HAWTHORN
Keysborough Secondary College,CHANDLER,136,96,27,2.4,,
Keysborough Secondary College,HEATHERHILL,187,99,28,3,,
Kilbreda College,MENTONE,267,100,30,7.3,3194,DANDENONG
Killester College,SPRINGVALE,229,100,31,7.2,3171,MULGRAVE
Kilvington Grammar School,ORMOND,156,100,35,22.2,3204,DANDENONG
Kings College,WARRNAMBOOL,23,100,31,7.4,3280,VIC FAR COUNTRY
Kingswood College,BOX HILL,141,100,32,8.1,3128,FERNTREE GULLY
Kolbe Catholic College,GREENVALE LAKES,154,99,26,1.9,,
Koo Wee Rup Secondary College,KOO WEE RUP,197,97,28,1.1,3981,FRANKSTON
Koonung Secondary College,MONT ALBERT NORTH,252,100,31,8.9,3129,FERNTREE GULLY
Korowa Anglican Girls School,GLEN IRIS,131,100,37,29,3146,HAWTHORN
Korumburra Secondary College,KORUMBURRA,49,88,24,0.7,3950,VIC FAR COUNTRY
Kurnai College,CHURCHILL,282,89,27,1,3842,VIC COUNTRY
Kurunjang Secondary College,MELTON,125,100,22,0.3,3337,MELB NORTH WEST
Kyabram Secondary College,KYABRAM,106,92,24,0.4,3619,VIC FAR COUNTRY
Kyabram Secondary College,KYABRAM,106,92,24,0.4,3620,VIC FAR COUNTRY
Kyneton Secondary College,KYNETON,80,100,27,2.4,3444,VIC FAR COUNTRY
Lake Bolac College,LAKE BOLAC,0,0,0,0,3351,VIC COUNTRY
Lakes Entrance Secondary College,LAKES ENTRANCE,37,100,28,1.5,3909,VIC FAR COUNTRY
Lakeside Lutheran College,PAKENHAM,35,100,28,0,3810,FRANKSTON
Lakeview Senior College,CAROLINE SPRINGS,436,97,28,3.1,3023,FOOTSCRAY
Lalor North Secondary College,EPPING,92,100,26,1.6,3076,RINGWOOD
Lalor Secondary College,LALOR,150,95,29,3.2,3075,RINGWOOD
Lara Secondary College,LARA,139,92,23,0.7,3212,VIC COUNTRY
Lauriston Girls School,ARMADALE,93,100,35,29.7,3143,HAWTHORN
Lavalla Catholic College,TRARALGON,276,99,27,3.1,3844,VIC COUNTRY
Lavers Hill K-12 College,LAVERS HILL,21,100,26,0,3238,VIC FAR COUNTRY
Laverton P-12 College,LAVERTON,61,97,23,0.6,3028,MELB NORTH WEST
Leibler Yavneh College,ELSTERNWICK,124,100,35,27.9,3185,MOORABBIN
Leongatha Secondary College,LEONGATHA,120,92,27,5.7,3953,VIC FAR COUNTRY
Lighthouse Christian College,KEYSBOROUGH,59,100,29,4.4,3173,DANDENONG
Lighthouse Christian College Cranbourne,CRANBOURNE,87,98,30,9,3977,FRANKSTON
Lilydale Heights College,LILYDALE,81,100,26,0.9,3140,RINGWOOD
Lilydale High School,LILYDALE,455,99,28,3.2,3140,RINGWOOD
Little Yarra Steiner School,YARRA JUNCTION,20,100,31,0,3797,RINGWOOD
Loreto College,BALLARAT,216,99,31,6.7,3350,VIC COUNTRY
Loreto College,BALLARAT,216,99,31,6.7,3353,VIC COUNTRY
Loreto Mandeville Hall,TOORAK,208,100,36,27,3142,MOORABBIN
Lorne P-12 College,LORNE,30,100,27,0,3232,VIC FAR COUNTRY
Lowanna College,NEWBOROUGH,186,97,22,0,3825,VIC COUNTRY
Lowther Hall Anglican Grammar School,ESSENDON,234,100,36,25.2,3040,FOOTSCRAY
Loyola College,WATSONIA,265,100,30,3.7,3087,PRESTON
Luther College,CROYDON,333,100,32,9.4,3136,RINGWOOD
Lynall Hall Community School,RICHMOND,33,100,0,0,3121,MOORABBIN
Lyndale Secondary College,DANDENONG NORTH,171,96,26,2.8,3175,DANDENONG
Lyndhurst Secondary College,CRANBOURNE,119,96,25,3,3977,FRANKSTON
MacKillop Catholic Regional College,WERRIBEE,240,93,30,3.5,3030,MELB NORTH WEST
Macleod College,MACLEOD,104,99,25,2.2,3085,HAWTHORN
Macrobertson Girls High School,MELBOURNE,515,100,37,36.6,3000,MELBOURNE CITY
Macrobertson Girls High School,MELBOURNE,515,100,37,36.6,3001,MELBOURNE CITY
Macrobertson Girls High School,MELBOURNE,515,100,37,36.6,3004,MELBOURNE CITY
Maffra Secondary College,MAFFRA,78,96,26,2,3860,VIC FAR COUNTRY
Mallacoota P-12 College,MALLACOOTA,19,100,27,0,3892,VIC FAR COUNTRY
Manangatang P-12 College,MANANGATANG,11,100,27,2.8,3546,VIC FAR COUNTRY
Manor Lakes P-12 College,WYNDHAM VALE,141,91,27,2.5,3024,MELB NORTH WEST
Mansfield Secondary College,MANSFIELD,82,98,27,0.5,3722,VIC FAR COUNTRY
Mansfield Secondary College,MANSFIELD,82,98,27,0.5,3724,VIC FAR COUNTRY
Maranatha Christian School,ENDEAVOUR HILLS,123,100,31,8,3802,DANDENONG
Marcellin College,BULLEEN,291,100,30,7.5,3105,RINGWOOD
Marian College,ARARAT,96,98,27,4.2,3377,VIC FAR COUNTRY
Marian College,MYRTLEFORD,53,100,27,0,3736,VIC FAR COUNTRY
Marian College,MYRTLEFORD,53,100,27,0,3737,VIC FAR COUNTRY
Marian College,SUNSHINE WEST,189,97,29,4.1,3020,FOOTSCRAY
Maribyrnong Secondary College,MARIBYRNONG,224,95,29,5.8,3032,FOOTSCRAY
Marist Sion College,WARRAGUL,150,98,29,6,3820,VIC COUNTRY
Mary MacKillop Catholic College,LEONGATHA,111,98,30,4.9,3953,VIC FAR COUNTRY
Maryborough Education Centre,MARYBOROUGH,111,90,24,1.2,3465,VIC FAR COUNTRY
Marymede Catholic College,SOUTH MORANG,162,99,30,4.7,3752,RINGWOOD
Mater Christi College,BELGRAVE,225,100,32,10.9,3160,FERNTREE GULLY
Matthew Flinders Girls Secondary College,GEELONG,158,99,26,1.8,3220,VIC COUNTRY
Mazenod College,MULGRAVE,414,100,32,10.9,3170,MULGRAVE
McClelland Secondary College,FRANKSTON,152,98,29,3.8,3199,FRANKSTON
McGuire College,SHEPPARTON,98,94,24,3.3,3630,VIC COUNTRY
McGuire College,SHEPPARTON,98,94,24,3.3,3632,VIC COUNTRY
McKinnon Secondary College,MCKINNON,530,100,33,17.3,3204,DANDENONG
Melba Secondary College,CROYDON,109,96,28,4.1,3136,RINGWOOD
Melbourne City Mission,SOUTH MELBOURNE,4,0,0,0,3205,MOORABBIN
Melbourne Girls College,RICHMOND,381,100,33,14.6,3121,MOORABBIN
Melbourne Girls Grammar,SOUTH YARRA,193,100,36,28.6,3141,MOORABBIN
Melbourne Grammar School,MELBOURNE,379,100,34,22.8,3000,MELBOURNE CITY
Melbourne Grammar School,MELBOURNE,379,100,34,22.8,3001,MELBOURNE CITY
Melbourne Grammar School,MELBOURNE,379,100,34,22.8,3004,MELBOURNE CITY
Melbourne High School,SOUTH YARRA,686,100,36,30.6,3141,MOORABBIN
Melbourne Polytechnic,PRESTON,79,0,0,0,3072,PRESTON
Melbourne Rudolf Steiner School,WARRANWOOD,60,100,31,6.7,3134,RINGWOOD
Melton Christian College,MELTON SOUTH,62,96,26,0.7,3338,MELB NORTH WEST
Melton Secondary College,MELTON,159,94,27,4.4,3337,MELB NORTH WEST
Mentone Girls Grammar School,MENTONE,168,99,34,20.9,3194,DANDENONG
Mentone Girls Secondary College,MENTONE,329,100,31,9.2,3194,DANDENONG
Mentone Grammar School,MENTONE,264,99,35,21.2,3194,DANDENONG
Mercy College,COBURG,126,98,29,4,3058,PRESTON
Mercy Regional College,CAMPERDOWN,148,98,28,1.7,3260,VIC FAR COUNTRY
Merinda Park Learning Centre,CRANBOURNE,0,0,0,0,3977,FRANKSTON
Methodist Ladies College,KEW,384,100,36,28.3,3101,HAWTHORN
Mildura Senior College,MILDURA,548,95,27,2.1,3500,VIC FAR COUNTRY
Mildura Senior College,MILDURA,548,95,27,2.1,3502,VIC FAR COUNTRY
Mill Park Secondary College,EPPING,431,95,25,2.2,3076,RINGWOOD
Minaret College,OFFICER,45,100,25,0.9,3809,DANDENONG
Minaret College,SPRINGVALE,156,100,27,4.7,3171,MULGRAVE
Mirboo North Secondary College,MIRBOO NORTH,72,100,29,1.5,3871,VIC FAR COUNTRY
Monbulk College,MONBULK,86,98,29,5.7,3793,FERNTREE GULLY
Monivae College,HAMILTON,109,100,29,2.9,3300,VIC FAR COUNTRY
Monterey Secondary College,FRANKSTON NORTH,51,92,22,0,3200,FRANKSTON
Montmorency Secondary College,MONTMORENCY,122,98,29,5.9,3094,PRESTON
Mooroolbark College,MOOROOLBARK,203,97,27,2.5,3138,RINGWOOD
Mooroopna Secondary College,MOOROOPNA,76,97,23,1.3,3629,VIC COUNTRY
Mordialloc College,MORDIALLOC,133,94,27,5.7,3195,DANDENONG
Mornington Secondary College,MORNINGTON,364,96,27,1.1,3931,FRANKSTON
Mortlake College,MORTLAKE,22,100,33,13.3,3272,VIC FAR COUNTRY
Mountain District Christian School,MONBULK,23,93,30,2.9,3793,FERNTREE GULLY
Mountain District Womens Co-Op,FERNTREE GULLY,14,0,0,0,3156,FERNTREE GULLY
MOUNT Alexander 7-12 College,FLEMINGTON,64,94,26,1.5,3031,FOOTSCRAY
MOUNT Beauty Secondary College,MOUNT BEAUTY,59,96,27,2.1,3699,VIC FAR COUNTRY
MOUNT Clear College,MOUNT CLEAR,168,90,24,1.3,3350,VIC COUNTRY
MOUNT Eliza Secondary College,MOUNT ELIZA,162,99,28,4.2,3930,FRANKSTON
MOUNT Erin College,FRANKSTON,133,99,27,0.9,3199,FRANKSTON
MOUNT Evelyn Christian School,MOUNT EVELYN,101,100,30,5.4,3796,RINGWOOD
MOUNT Hira College,KEYSBOROUGH,61,100,27,2.2,3173,DANDENONG
MOUNT Lilydale Mercy College,LILYDALE,312,99,29,4.7,3140,RINGWOOD
MOUNT Ridley P-12 College,CRAIGIEBURN,202,99,25,2.1,3064,MELB NORTH WEST
MOUNT Scopus Memorial College,BURWOOD,212,99,37,35.8,3125,HAWTHORN
MOUNT St Joseph Girls College,ALTONA,213,100,31,7.6,3018,FOOTSCRAY
MOUNT Waverley Secondary College,MOUNT WAVERLEY,439,99,30,5.9,3149,MULGRAVE
Mullauna College,MITCHAM,110,98,31,8.3,3132,FERNTREE GULLY
Murrayville Community College,MURRAYVILLE,25,100,32,21.4,3512,VIC FAR COUNTRY
Murtoa P-12 College,MURTOA,38,96,28,2.4,3390,VIC FAR COUNTRY
Myrtleford P-12 College,MYRTLEFORD,30,88,26,1.6,3736,VIC FAR COUNTRY
Myrtleford P-12 College,MYRTLEFORD,30,88,26,1.6,3737,VIC FAR COUNTRY
Nagle College,BAIRNSDALE,165,99,26,1.6,3875,VIC FAR COUNTRY
Narre Community Learning Centre,NARRE WARREN,6,0,0,0,3805,DANDENONG
Narre Warren South P-12 College,NARRE WARREN SOUTH,262,98,30,3.8,3805,DANDENONG
Nathalia Secondary College,NATHALIA,29,100,28,2.2,3638,VIC FAR COUNTRY
Nazareth College,NOBLE PARK NORTH,143,100,29,5,3174,MULGRAVE
Neerim District Secondary College,NEERIM SOUTH,28,100,28,6.2,3831,VIC FAR COUNTRY
Newcomb Secondary College,NEWCOMB,63,91,24,0,3219,VIC COUNTRY
Newhaven College Rhyll,RHYLL,137,100,31,5.2,3923,VIC FAR COUNTRY
Nhill College,NHILL,50,100,29,7.5,3418,VIC FAR COUNTRY
Noble Park Secondary College,NOBLE PARK,103,97,25,2.1,3174,MULGRAVE
North Geelong Secondary College,NORTH GEELONG,122,96,25,1.9,3215,VIC COUNTRY
North Melbourne Grammar College,NORTH MELBOURNE,24,80,22,0,3051,MELBOURNE CITY
Northcote High School,NORTHCOTE,442,99,31,8.9,3070,PRESTON
Northern Bay P-12 College,CORIO,74,88,22,0,3214,VIC COUNTRY
Northern College of Arts & Technology,EAST PRESTON,289,94,27,4.6,,
Northside Christian College,BUNDOORA,28,100,30,10.4,3083,PRESTON
Norwood Secondary College,RINGWOOD,242,98,28,3.3,3134,RINGWOOD
Nossal High School,BERWICK,424,100,36,21.5,3806,DANDENONG
Notre Dame College,SHEPPARTON,395,99,29,6.7,3630,VIC COUNTRY
Notre Dame College,SHEPPARTON,395,99,29,6.7,3632,VIC COUNTRY
Numurkah Secondary College,NUMURKAH,35,100,23,0,3636,VIC FAR COUNTRY
Nunawading Christian College,NUNAWADING,43,100,30,8.2,3131,FERNTREE GULLY
Oakleigh Grammar,OAKLEIGH,80,100,30,3.1,3166,MULGRAVE
Oakwood School,CAULFIELD NORTH,50,100,0,0,3161,MULGRAVE
Oberon High School,BELMONT,124,100,29,4.3,3216,VIC COUNTRY
Orbost Secondary College,ORBOST,60,95,22,0,3888,VIC FAR COUNTRY
Our Lady of Mercy College,HEIDELBERG,339,100,32,11,3084,HAWTHORN
Our Lady of Sacred Heart College,BENTLEIGH,169,98,32,8.2,3204,DANDENONG
Our Lady of Sion College,BOX HILL,217,100,33,11.3,3128,FERNTREE GULLY
Ouyen Secondary College,OUYEN,19,100,32,7.5,3490,VIC FAR COUNTRY
Overnewton Anglican College,KEILOR,245,100,30,6.7,3036,FOOTSCRAY
Oxley Christian College,CHIRNSIDE PARK,151,100,32,10,3116,RINGWOOD
Ozford College,MELBOURNE,15,100,21,0,3000,MELBOURNE CITY
Ozford College,MELBOURNE,15,100,21,0,3001,MELBOURNE CITY
Ozford College,MELBOURNE,15,100,21,0,3004,MELBOURNE CITY
Padua College,MORNINGTON,443,99,29,3.9,3931,FRANKSTON
Pakenham Secondary College,PAKENHAM,130,100,27,1.8,3810,FRANKSTON
Parade College,BUNDOORA,359,100,31,6.6,3083,PRESTON
Parkdale Secondary College,MORDIALLOC,360,97,29,3.7,3195,DANDENONG
Parkville College,PARKVILLE,0,0,0,0,3052,MELBOURNE CITY
Pascoe Vale Girls Secondary College,PASCOE VALE,266,93,27,2.7,3044,FOOTSCRAY
Patterson River Secondary College,CARRUM,175,95,28,1.6,3197,FRANKSTON
Penleigh and Essendon Grammar School,KEILOR EAST,288,100,35,24,3033,FOOTSCRAY
Penola Catholic College,BROADMEADOWS,263,99,29,2.1,3047,MELB NORTH WEST
Peter Lalor Secondary College,LALOR,30,0,0,0,3075,RINGWOOD
Phoenix P-12 Community College,SEBASTOPOL,150,99,26,1.9,3356,VIC COUNTRY
Pines Learning,EAST DONCASTER,5,0,0,0,,
Plenty Valley Christian College,DOREEN,104,100,30,5.8,3754,PRESTON
Point Cook Senior Secondary College,POINT COOK,299,95,27,2.7,3030,MELB NORTH WEST
Portland Secondary College,PORTLAND,141,97,26,0.6,3305,VIC FAR COUNTRY
Presbyterian Ladies College,BURWOOD,280,100,36,28.5,3125,HAWTHORN
Presentation College,WINDSOR,152,99,30,6.6,3181,MOORABBIN
Preshil The Margaret Lyttle Memorial School,KEW,47,96,29,3,3101,HAWTHORN
Preston Reservoir Adult Community Education,RESERVOIR,0,0,0,0,3073,PRESTON
Princes Hill Secondary College,CARLTON NORTH,193,98,31,9.9,3054,MELBOURNE CITY
Rainbow P-12 College,RAINBOW,19,100,28,2.5,3424,VIC FAR COUNTRY
Red Cliffs Secondary College,RED CLIFFS,139,99,24,2.3,3496,VIC FAR COUNTRY
Reservoir High School,RESERVOIR,122,97,27,3,3073,PRESTON
Ringwood Secondary College,RINGWOOD,351,97,29,6.2,3134,RINGWOOD
River Nile School,NORTH MELBOURNE,0,0,0,0,3051,MELBOURNE CITY
RMIT TAFE,CARLTON,266,70,25,1.7,3053,MELBOURNE CITY
Robinvale P-12 College,ROBINVALE,48,95,24,1,3549,VIC FAR COUNTRY
Rochester Secondary College,ROCHESTER,92,98,27,1.5,3561,VIC FAR COUNTRY
Rosebud Secondary College,ROSEBUD,216,99,28,1.8,3939,FRANKSTON
Rosehill Secondary College,NIDDRIE,216,99,29,2.4,3042,FOOTSCRAY
Rowville Secondary College,ROWVILLE,492,94,27,1.5,3178,FERNTREE GULLY
Roxburgh College,ROXBURGH PARK,253,92,25,1.3,3064,MELB NORTH WEST
Rushworth P-12 College,RUSHWORTH,18,100,26,0,3612,VIC FAR COUNTRY
Rutherglen High School,RUTHERGLEN,66,97,26,3,3685,VIC FAR COUNTRY
Ruyton Girls School,KEW,160,100,36,26.8,3101,HAWTHORN
Sacre Coeur,GLEN IRIS,156,100,36,26.3,3146,HAWTHORN
Sacred Heart College,KYNETON,180,100,31,9.4,3444,VIC FAR COUNTRY
Sacred Heart College,NEWTOWN,387,100,34,13.6,3220,VIC COUNTRY
Sacred Heart College,NEWTOWN,387,100,34,13.6,3351,VIC COUNTRY
Sacred Heart College,YARRAWONGA,53,100,28,1,3730,VIC FAR COUNTRY
Sacred Heart Girls College,HUGHESDALE,213,100,34,13.6,3166,MULGRAVE
Saint Ignatius College,DRYSDALE,195,100,32,7.9,3222,VIC FAR COUNTRY
Sale College,SALE,160,96,25,0.9,3850,VIC FAR COUNTRY
Sale College,SALE,160,96,25,0.9,3853,VIC FAR COUNTRY
Salesian College,CHADSTONE,229,100,31,5,3148,MULGRAVE
Salesian College,SUNBURY,205,99,29,2.3,3429,MELB NORTH WEST
Sandringham College,SANDRINGHAM,277,97,29,3.5,3191,DANDENONG
Santa Maria College,NORTHCOTE,220,100,31,10.1,3070,PRESTON
Scoresby Secondary College,SCORESBY,50,100,24,0,3179,FERNTREE GULLY
Scotch College,HAWTHORN,439,100,36,26.8,3122,HAWTHORN
Seda Group,HAWTHORN EAST,451,0,0,0,3123,HAWTHORN
Seymour College,SEYMOUR,85,88,25,2.6,3660,VIC FAR COUNTRY
Seymour College,SEYMOUR,85,88,25,2.6,3661,VIC FAR COUNTRY
Shelford Girls Grammar,CAULFIELD,137,100,36,25.4,3162,MULGRAVE
Shepparton Adult and Community Education,SHEPPARTON,4,0,0,0,3630,VIC COUNTRY
Shepparton Adult and Community Education,SHEPPARTON,4,0,0,0,3632,VIC COUNTRY
Shepparton Christian College,SHEPPARTON,33,100,28,10.5,3630,VIC COUNTRY
Shepparton Christian College,SHEPPARTON,33,100,28,10.5,3632,VIC COUNTRY
Shepparton High School,SHEPPARTON,125,84,24,2,3630,VIC COUNTRY
Shepparton High School,SHEPPARTON,125,84,24,2,3632,VIC COUNTRY
Sherbrooke Community School,SASSAFRAS,28,80,25,2.6,3787,FERNTREE GULLY
Siena College,CAMBERWELL,164,100,34,14.3,3124,HAWTHORN
Simonds Catholic College,FITZROY NORTH,107,98,31,4.2,3068,PRESTON
Sirius College Broadmeadows Campus,BROADMEADOWS,138,100,31,9.4,3047,MELB NORTH WEST
Sirius College Dandenong Campus,KEYSBOROUGH,65,100,29,5.5,3173,DANDENONG
Sirius College Meadow Fair Campus,BROADMEADOWS,149,100,33,12.4,3047,MELB NORTH WEST
Skillsplus,FRANKSTON,0,0,0,0,3199,FRANKSTON
Somerville Secondary College,SOMERVILLE,47,94,25,2,3912,FRANKSTON
South Oakleigh Secondary College,SOUTH OAKLEIGH,84,97,29,3,,
South West Institute of TAFE,WARRNAMBOOL,26,0,0,0,3280,VIC FAR COUNTRY
Southern Cross Grammar,CAROLINE SPRINGS,16,0,34,8.3,3023,FOOTSCRAY
Southern Grampians Adult Edu,HAMILTON,8,0,0,0,3300,VIC FAR COUNTRY
St Albans Secondary College,ST ALBANS,257,95,30,8.4,3021,HAWTHORN
St Aloysius College,NORTH MELBOURNE,110,100,32,4.9,3051,MELBOURNE CITY
St Andrews Christian College,WANTIRNA SOUTH,58,100,32,10.8,3152,FERNTREE GULLY
St Arnaud Secondary College,ST ARNAUD,30,100,26,1,3478,VIC FAR COUNTRY
St Augustines College,KYABRAM,69,93,29,3.8,3619,VIC FAR COUNTRY
St Augustines College,KYABRAM,69,93,29,3.8,3620,VIC FAR COUNTRY
St Bedes College,MENTONE,349,100,31,7.9,3194,DANDENONG
St Bernards College,ESSENDON,314,100,31,8,3040,FOOTSCRAY
St Brigids College,HORSHAM,104,98,28,2.7,3400,VIC FAR COUNTRY
St Brigids College,HORSHAM,104,98,28,2.7,3402,VIC FAR COUNTRY
St Catherines School,TOORAK,161,100,34,20,3142,MOORABBIN
St Columbas College,ESSENDON,237,100,32,11.9,3040,FOOTSCRAY
St Francis Xavier College,BEACONSFIELD,513,99,29,4.3,3807,DANDENONG
St Helena Secondary College,ELTHAM,389,99,30,5.7,3095,PRESTON
St Johns Greek Orthodox College,PRESTON,19,100,26,3.4,3072,PRESTON
St Johns Regional College,DANDENONG,204,99,28,3,3175,DANDENONG
St Josephs College,ECHUCA,261,96,28,1.8,3564,VIC FAR COUNTRY
St Josephs College,FERNTREE GULLY,270,99,30,6.4,3156,FERNTREE GULLY
St Josephs College,MILDURA,173,100,29,6.3,3500,VIC FAR COUNTRY
St Josephs College,MILDURA,173,100,29,6.3,3502,VIC FAR COUNTRY
St Josephs College,NEWTOWN,387,99,31,10,3220,VIC COUNTRY
St Josephs College,NEWTOWN,387,99,31,10,3351,VIC COUNTRY
St Kevins College,TOORAK,371,100,37,30.8,3142,MOORABBIN
St Leonards College,BRIGHTON EAST,174,100,34,15.9,3187,MOORABBIN
St Margarets School,BERWICK,97,100,35,20.4,3806,DANDENONG
St Mary MacKillop College,SWAN HILL,113,100,29,4.6,3585,VIC FAR COUNTRY
St Mary of the Angels School,NATHALIA,141,100,27,1.9,3638,VIC FAR COUNTRY
St Marys Coptic Orthodox College,COOLAROO,120,100,27,7.6,3048,MELB NORTH WEST
St Michaels Grammar School,ST KILDA,189,100,33,15.3,3182,MOORABBIN
St Monicas College,EPPING,383,100,30,6.6,3076,RINGWOOD
St Patricks College,BALLARAT,357,98,29,3.2,3350,VIC COUNTRY
St Patricks College,BALLARAT,357,98,29,3.2,3353,VIC COUNTRY
St Pauls Anglican Grammar School,WARRAGUL,198,99,32,10.2,3820,VIC COUNTRY
St Peters College,CRANBOURNE,287,100,27,2.3,3977,FRANKSTON
St Thomas Aquinas College,TYNONG,25,100,28,2.9,3813,VIC FAR COUNTRY
Star of the Sea College,GARDENVALE,268,100,33,14.8,3185,MOORABBIN
Staughton College,MELTON SOUTH,139,94,26,0.6,3338,MELB NORTH WEST
Stawell Secondary College,STAWELL,67,97,24,0.7,3380,VIC FAR COUNTRY
Stotts Colleges,MELBOURNE,24,100,27,6.2,3000,MELBOURNE CITY
Stotts Colleges,MELBOURNE,24,100,27,6.2,3001,MELBOURNE CITY
Stotts Colleges,MELBOURNE,24,100,27,6.2,3004,MELBOURNE CITY
Strathcona Baptist Girls Grammar School,CANTERBURY,163,100,36,25.8,3126,HAWTHORN
Strathmore Secondary College,STRATHMORE,371,98,32,9,3041,FOOTSCRAY
Sunbury College,SUNBURY,200,97,27,2,3429,MELB NORTH WEST
Sunbury Downs Secondary College,SUNBURY,141,96,31,4.6,3429,MELB NORTH WEST
Sunraysia Institute of TAFE,MILDURA,4,0,0,0,3500,VIC FAR COUNTRY
Sunraysia Institute of TAFE,MILDURA,4,0,0,0,3502,VIC FAR COUNTRY
Sunshine College,SUNSHINE,168,96,29,2.2,3020,FOOTSCRAY
Surf Coast Secondary College,TORQUAY,129,100,28,2,3228,VIC COUNTRY
Suzanne Cory High School,WERRIBEE,403,100,35,19.7,3030,MELB NORTH WEST
Swan Hill College,SWAN HILL,199,99,25,3,3585,VIC FAR COUNTRY
Swifts Creek P-12 School,SWIFTS CREEK,11,100,29,15.8,3896,VIC FAR COUNTRY
Swinburne Senior Secondary College,HAWTHORN,262,91,28,0.8,3122,HAWTHORN
Swinburne University of Technology TAFE Division,PRAHRAN,24,0,0,0,3181,MOORABBIN
Sydney Road Community School,BRUNSWICK,18,83,23,0,3056,PRESTON
Tallangatta Secondary College,TALLANGATTA,85,100,28,0.5,3700,VIC FAR COUNTRY
Tarneit Senior College,TARNEIT,160,97,26,0.6,3029,MELB NORTH WEST
Taylors Lakes Secondary College,TAYLORS LAKES,269,99,27,2.3,3038,HAWTHORN
Templestowe College,LOWER TEMPLESTOWE,275,85,28,2.9,,
Terang College Secondary Campus,TERANG,35,100,29,5.3,3264,VIC FAR COUNTRY
The Centre,WANGARATTA,0,0,0,0,3676,VIC FAR COUNTRY
The Centre,WANGARATTA,0,0,0,0,3677,VIC FAR COUNTRY
The David Scott School,FRANKSTON,10,0,0,0,3199,FRANKSTON
The Geelong College,NEWTOWN,243,99,34,19.1,3220,VIC COUNTRY
The Geelong College,NEWTOWN,243,99,34,19.1,3351,VIC COUNTRY
The Grange P-12 College,HOPPERS CROSSING,158,94,25,1.4,3029,MELB NORTH WEST
The Hamilton and Alexandra College,HAMILTON,127,100,32,12.7,3300,VIC FAR COUNTRY
The King David School,ARMADALE,124,100,36,25.3,3143,HAWTHORN
The Knox School,WANTIRNA SOUTH,134,100,32,8.5,3152,FERNTREE GULLY
The Peninsula School,MOUNT ELIZA,284,100,33,14.9,3930,FRANKSTON
Thomas Carr College,TARNEIT,317,99,27,1.3,3029,MELB NORTH WEST
Thomastown Secondary College,THOMASTOWN,87,95,23,1.9,3074,RINGWOOD
Thornbury High School,THORNBURY,202,98,30,4.5,3071,PRESTON
Timboon P-12 School,TIMBOON,35,100,28,0,3268,VIC FAR COUNTRY
Tintern Grammar,RINGWOOD EAST,128,100,31,8.5,3135,RINGWOOD
Toorak College,MOUNT ELIZA,133,100,34,17.7,3930,FRANKSTON
Trafalgar High School,TRAFALGAR,120,100,28,3.7,3824,VIC FAR COUNTRY
Traralgon College,TRARALGON,125,90,23,0,3844,VIC COUNTRY
Trinity College,COLAC,176,96,27,4.6,3250,VIC FAR COUNTRY
Trinity Grammar School,KEW,255,100,36,24.7,3101,HAWTHORN
Tyrrell College,SEA LAKE,32,100,29,10.4,3533,VIC FAR COUNTRY
University High School,PARKVILLE,462,100,32,14.8,3052,MELBOURNE CITY
Upper Yarra Secondary College,YARRA JUNCTION,85,95,26,1.7,3797,RINGWOOD
Upwey High School,UPWEY,153,87,27,1.7,3158,FERNTREE GULLY
Vermont Secondary College,VERMONT,277,100,31,8.3,3133,FERNTREE GULLY
Victoria University of Technology TAFE,FOOTSCRAY,56,74,19,0.8,3011,FOOTSCRAY
Victoria University Secondary College Brimbank Campus,ST ALBANS,179,91,27,2.6,3021,HAWTHORN
Victorian College for the Deaf,MELBOURNE,0,0,0,0,3000,MELBOURNE CITY
Victorian College for the Deaf,MELBOURNE,0,0,0,0,3001,MELBOURNE CITY
Victorian College for the Deaf,MELBOURNE,0,0,0,0,3004,MELBOURNE CITY
Victorian College of the Arts Secondary School,SOUTHBANK,195,94,35,23.3,3006,MOORABBIN
Victory Christian College,STRATHDALE,57,100,29,5.2,3550,VIC COUNTRY
Victory Lutheran College,WODONGA,65,97,31,11,3689,VIC FAR COUNTRY
Victory Lutheran College,WODONGA,65,97,31,11,3690,VIC FAR COUNTRY
Viewbank College,ROSANNA,277,99,32,9.8,3084,HAWTHORN
Wallan Secondary College,WALLAN,58,84,25,0.7,3756,MELB NORTH WEST
Wanganui Park Secondary College,SHEPPARTON,248,99,27,2.9,3630,VIC COUNTRY
Wanganui Park Secondary College,SHEPPARTON,248,99,27,2.9,3632,VIC COUNTRY
Wangaratta High School,WANGARATTA,167,90,28,4.3,3676,VIC FAR COUNTRY
Wangaratta High School,WANGARATTA,167,90,28,4.3,3677,VIC FAR COUNTRY
Wantirna College,WANTIRNA,223,97,28,4.6,3152,FERNTREE GULLY
Warracknabeal Secondary College,WARRACKNABEAL,43,100,27,2.9,3393,VIC FAR COUNTRY
Warragul Regional College,WARRAGUL,147,95,25,4.1,3820,VIC COUNTRY
Warrandyte High School,WARRANDYTE,136,91,26,4.2,3113,RINGWOOD
Warrnambool College,WARRNAMBOOL,261,95,29,4.8,3280,VIC FAR COUNTRY
Waverley Christian College,WANTIRNA SOUTH,260,99,33,11.8,3152,FERNTREE GULLY
Wedderburn College,WEDDERBURN,30,100,29,4.2,3518,VIC FAR COUNTRY
Wellington Secondary College,MULGRAVE,435,100,30,6.1,3170,MULGRAVE
Werribee Secondary College,WERRIBEE,313,94,30,10.1,3030,MELB NORTH WEST
Werrimull P-12 College,WERRIMULL,8,100,29,0,3496,VIC FAR COUNTRY
Wesley College,GLEN WAVERLEY,117,100,32,7.9,3150,MULGRAVE
Wesley College,MELBOURNE,173,100,33,12.1,3000,MELBOURNE CITY
Wesley College,MELBOURNE,173,100,33,12.1,3001,MELBOURNE CITY
Wesley College,MELBOURNE,173,100,33,12.1,3004,MELBOURNE CITY
Westall Secondary College,CLAYTON SOUTH,97,100,28,5.1,3169,MULGRAVE
Westbourne Grammar School,TRUGANINA,189,100,34,15.2,3029,MELB NORTH WEST
Western Heights College,HAMLYN HEIGHTS,153,89,24,1.1,3215,VIC COUNTRY
Western Port Secondary College,HASTINGS,91,96,25,0.5,3915,FRANKSTON
Western Senior Secondary College,WEST MELBOURNE,51,0,0,0,3003,MELBOURNE CITY
Wheelers Hill Secondary College,WHEELERS HILL,102,97,27,4.8,3150,MULGRAVE
Whitefriars College,DONVALE,289,100,30,5.9,3111,RINGWOOD
Whittlesea Secondary College,WHITTLESEA,137,93,27,2.3,3757,MELB NORTH WEST
William Angliss Institute of TAFE,MELBOURNE,16,0,0,0,3000,MELBOURNE CITY
William Angliss Institute of TAFE,MELBOURNE,16,0,0,0,3001,MELBOURNE CITY
William Angliss Institute of TAFE,MELBOURNE,16,0,0,0,3004,MELBOURNE CITY
William Ruthven Secondary College,RESERVOIR,82,84,25,1.1,3073,PRESTON
Williamstown High School,WILLIAMSTOWN,395,99,31,8.2,3016,FOOTSCRAY
Wodonga Institute of TAFE,WODONGA,0,0,0,0,3689,VIC FAR COUNTRY
Wodonga Institute of TAFE,WODONGA,0,0,0,0,3690,VIC FAR COUNTRY
Wodonga Senior Secondary College,WODONGA,417,95,25,1.8,3689,VIC FAR COUNTRY
Wodonga Senior Secondary College,WODONGA,417,95,25,1.8,3690,VIC FAR COUNTRY
Wonthaggi Secondary College,WONTHAGGI,173,99,28,4,3995,VIC FAR COUNTRY
Woodleigh School,LANGWARRIN SOUTH,157,100,33,14.8,3911,FRANKSTON
Wycheproof P-12 College,WYCHEPROOF,15,100,28,0,3527,VIC FAR COUNTRY
Wyndham Central Secondary College,WERRIBEE,107,89,27,2.1,3030,MELB NORTH WEST
Wyndham Community and Education Centre,WERRIBEE,19,0,0,0,3030,MELB NORTH WEST
Xavier College,KEW,399,100,33,15,3101,HAWTHORN
Yarra Hills Secondary College,MOOROOLBARK,65,95,25,0.6,3138,RINGWOOD
Yarra Valley Grammar School,RINGWOOD,300,99,34,20.1,3134,RINGWOOD
Yarram Secondary College,YARRAM,69,92,24,0.6,3971,VIC FAR COUNTRY
Yarrawonga College P-12,YARRAWONGA,68,81,28,4.3,3730,VIC FAR COUNTRY
Yea High School,YEA,82,100,28,4.5,3717,VIC FAR COUNTRY
Yeshivah College,ST KILDA EAST,43,100,37,20.6,3183,MOORABBIN
Yesodei Hatorah College Billilla Campus,BRIGHTON,21,100,34,37.9,3186,MOORABBIN
Yuille Park Community College,DELACOMBE,0,0,0,0,3356,VIC COUNTRY
